<?xml version="1.0" encoding="UTF-8"?>
<gpx version="1.1" creator="alpine_inversion" xmlns="http://www.topografix.com/GPX/1/1">
  <metadata><name>Quellenweg - Mittlerer Sattelkopf - Steig 11 - Oberer Sattelkopf - Gratsteig 23 - Fisser Joch</name><desc>Loop built from the Outdooractive Quellenweg track (244292271) and the Serfaus-Fiss-Ladis tour GPX files for Oberer Sattelkopf vom Komperdell (Steig 11) and Gratsteig zum Planskopf (Gratsteig 23).</desc></metadata>
  <trk>
    <name>Quellenweg with Oberer Sattelkopf via Steig 11 and Gratsteig 23</name>
    <trkseg>
      <trkpt lat="47.040114" lon="10.563067"><ele>1983.4</ele></trkpt>
      <trkpt lat="47.040090" lon="10.563017"><ele>1983.2</ele></trkpt>
      <trkpt lat="47.040185" lon="10.563123"><ele>1983.4</ele></trkpt>
      <trkpt lat="47.040241" lon="10.563013"><ele>1982.6</ele></trkpt>
      <trkpt lat="47.040283" lon="10.562839"><ele>1982.6</ele></trkpt>
      <trkpt lat="47.040357" lon="10.562722"><ele>1982.3</ele></trkpt>
      <trkpt lat="47.040608" lon="10.562480"><ele>1982.1</ele></trkpt>
      <trkpt lat="47.040642" lon="10.562502"><ele>1982.3</ele></trkpt>
      <trkpt lat="47.040841" lon="10.562377"><ele>1986.7</ele></trkpt>
      <trkpt lat="47.040970" lon="10.562363"><ele>1988.6</ele></trkpt>
      <trkpt lat="47.041038" lon="10.562302"><ele>1988.8</ele></trkpt>
      <trkpt lat="47.041091" lon="10.562299"><ele>1989.0</ele></trkpt>
      <trkpt lat="47.041115" lon="10.562278"><ele>1989.1</ele></trkpt>
      <trkpt lat="47.041144" lon="10.562281"><ele>1989.2</ele></trkpt>
      <trkpt lat="47.041192" lon="10.562259"><ele>1989.5</ele></trkpt>
      <trkpt lat="47.041251" lon="10.562197"><ele>1989.9</ele></trkpt>
      <trkpt lat="47.041370" lon="10.562137"><ele>1990.4</ele></trkpt>
      <trkpt lat="47.041470" lon="10.561983"><ele>1991.1</ele></trkpt>
      <trkpt lat="47.041746" lon="10.561660"><ele>1994.0</ele></trkpt>
      <trkpt lat="47.041809" lon="10.561497"><ele>1995.7</ele></trkpt>
      <trkpt lat="47.041907" lon="10.561412"><ele>1996.9</ele></trkpt>
      <trkpt lat="47.041972" lon="10.561331"><ele>1997.7</ele></trkpt>
      <trkpt lat="47.042021" lon="10.561298"><ele>1998.4</ele></trkpt>
      <trkpt lat="47.042169" lon="10.561100"><ele>2001.2</ele></trkpt>
      <trkpt lat="47.042235" lon="10.561042"><ele>2001.7</ele></trkpt>
      <trkpt lat="47.042268" lon="10.560982"><ele>2001.7</ele></trkpt>
      <trkpt lat="47.042344" lon="10.560942"><ele>2002.3</ele></trkpt>
      <trkpt lat="47.042387" lon="10.560891"><ele>2002.8</ele></trkpt>
      <trkpt lat="47.042536" lon="10.560814"><ele>2003.9</ele></trkpt>
      <trkpt lat="47.042645" lon="10.560803"><ele>2004.6</ele></trkpt>
      <trkpt lat="47.042719" lon="10.560772"><ele>2005.1</ele></trkpt>
      <trkpt lat="47.042838" lon="10.560786"><ele>2005.5</ele></trkpt>
      <trkpt lat="47.042930" lon="10.560719"><ele>2006.1</ele></trkpt>
      <trkpt lat="47.043151" lon="10.560675"><ele>2010.5</ele></trkpt>
      <trkpt lat="47.043209" lon="10.560691"><ele>2012.0</ele></trkpt>
      <trkpt lat="47.043297" lon="10.560676"><ele>2013.8</ele></trkpt>
      <trkpt lat="47.043367" lon="10.560564"><ele>2015.5</ele></trkpt>
      <trkpt lat="47.043562" lon="10.560599"><ele>2017.6</ele></trkpt>
      <trkpt lat="47.043613" lon="10.560589"><ele>2018.0</ele></trkpt>
      <trkpt lat="47.043674" lon="10.560555"><ele>2018.4</ele></trkpt>
      <trkpt lat="47.043756" lon="10.560570"><ele>2018.9</ele></trkpt>
      <trkpt lat="47.043806" lon="10.560561"><ele>2019.2</ele></trkpt>
      <trkpt lat="47.043826" lon="10.560585"><ele>2019.4</ele></trkpt>
      <trkpt lat="47.043851" lon="10.560574"><ele>2019.5</ele></trkpt>
      <trkpt lat="47.044028" lon="10.560606"><ele>2020.5</ele></trkpt>
      <trkpt lat="47.044050" lon="10.560592"><ele>2020.6</ele></trkpt>
      <trkpt lat="47.044103" lon="10.560610"><ele>2021.0</ele></trkpt>
      <trkpt lat="47.044119" lon="10.560565"><ele>2021.8</ele></trkpt>
      <trkpt lat="47.044205" lon="10.560467"><ele>2022.8</ele></trkpt>
      <trkpt lat="47.044236" lon="10.560468"><ele>2023.1</ele></trkpt>
      <trkpt lat="47.044280" lon="10.560506"><ele>2024.0</ele></trkpt>
      <trkpt lat="47.044305" lon="10.560510"><ele>2024.4</ele></trkpt>
      <trkpt lat="47.044345" lon="10.560557"><ele>2025.2</ele></trkpt>
      <trkpt lat="47.044404" lon="10.560541"><ele>2025.9</ele></trkpt>
      <trkpt lat="47.044477" lon="10.560614"><ele>2026.8</ele></trkpt>
      <trkpt lat="47.044539" lon="10.560617"><ele>2027.4</ele></trkpt>
      <trkpt lat="47.044650" lon="10.560522"><ele>2028.6</ele></trkpt>
      <trkpt lat="47.044705" lon="10.560525"><ele>2029.0</ele></trkpt>
      <trkpt lat="47.044747" lon="10.560579"><ele>2029.3</ele></trkpt>
      <trkpt lat="47.044924" lon="10.560657"><ele>2030.5</ele></trkpt>
      <trkpt lat="47.044945" lon="10.560682"><ele>2030.7</ele></trkpt>
      <trkpt lat="47.044999" lon="10.560696"><ele>2031.0</ele></trkpt>
      <trkpt lat="47.045049" lon="10.560674"><ele>2031.5</ele></trkpt>
      <trkpt lat="47.045075" lon="10.560685"><ele>2031.7</ele></trkpt>
      <trkpt lat="47.045148" lon="10.560814"><ele>2032.7</ele></trkpt>
      <trkpt lat="47.045181" lon="10.560783"><ele>2033.2</ele></trkpt>
      <trkpt lat="47.045354" lon="10.560871"><ele>2034.6</ele></trkpt>
      <trkpt lat="47.045430" lon="10.560797"><ele>2035.6</ele></trkpt>
      <trkpt lat="47.045507" lon="10.560836"><ele>2036.3</ele></trkpt>
      <trkpt lat="47.045547" lon="10.560796"><ele>2036.6</ele></trkpt>
      <trkpt lat="47.045595" lon="10.560820"><ele>2037.0</ele></trkpt>
      <trkpt lat="47.045633" lon="10.560914"><ele>2037.6</ele></trkpt>
      <trkpt lat="47.045624" lon="10.560959"><ele>2037.7</ele></trkpt>
      <trkpt lat="47.045635" lon="10.561012"><ele>2038.5</ele></trkpt>
      <trkpt lat="47.045748" lon="10.561064"><ele>2039.0</ele></trkpt>
      <trkpt lat="47.045771" lon="10.561056"><ele>2039.1</ele></trkpt>
      <trkpt lat="47.045816" lon="10.561097"><ele>2039.4</ele></trkpt>
      <trkpt lat="47.045917" lon="10.561130"><ele>2039.9</ele></trkpt>
      <trkpt lat="47.045969" lon="10.561167"><ele>2040.2</ele></trkpt>
      <trkpt lat="47.046032" lon="10.561246"><ele>2040.8</ele></trkpt>
      <trkpt lat="47.046118" lon="10.561261"><ele>2041.6</ele></trkpt>
      <trkpt lat="47.046178" lon="10.561350"><ele>2042.1</ele></trkpt>
      <trkpt lat="47.046388" lon="10.561451"><ele>2043.9</ele></trkpt>
      <trkpt lat="47.046439" lon="10.561444"><ele>2044.3</ele></trkpt>
      <trkpt lat="47.046557" lon="10.561520"><ele>2045.4</ele></trkpt>
      <trkpt lat="47.046606" lon="10.561535"><ele>2045.9</ele></trkpt>
      <trkpt lat="47.046661" lon="10.561610"><ele>2047.6</ele></trkpt>
      <trkpt lat="47.046830" lon="10.561742"><ele>2050.2</ele></trkpt>
      <trkpt lat="47.046922" lon="10.561898"><ele>2052.8</ele></trkpt>
      <trkpt lat="47.047052" lon="10.561964"><ele>2054.1</ele></trkpt>
      <trkpt lat="47.047120" lon="10.562024"><ele>2054.2</ele></trkpt>
      <trkpt lat="47.047178" lon="10.562106"><ele>2054.4</ele></trkpt>
      <trkpt lat="47.047228" lon="10.562128"><ele>2054.4</ele></trkpt>
      <trkpt lat="47.047275" lon="10.562174"><ele>2054.5</ele></trkpt>
      <trkpt lat="47.047357" lon="10.562188"><ele>2054.6</ele></trkpt>
      <trkpt lat="47.047424" lon="10.562242"><ele>2054.8</ele></trkpt>
      <trkpt lat="47.047454" lon="10.562295"><ele>2054.8</ele></trkpt>
      <trkpt lat="47.047503" lon="10.562317"><ele>2055.0</ele></trkpt>
      <trkpt lat="47.047523" lon="10.562348"><ele>2055.0</ele></trkpt>
      <trkpt lat="47.047581" lon="10.562349"><ele>2055.2</ele></trkpt>
      <trkpt lat="47.047631" lon="10.562320"><ele>2055.3</ele></trkpt>
      <trkpt lat="47.047698" lon="10.562391"><ele>2055.7</ele></trkpt>
      <trkpt lat="47.047726" lon="10.562386"><ele>2055.9</ele></trkpt>
      <trkpt lat="47.047820" lon="10.562434"><ele>2056.6</ele></trkpt>
      <trkpt lat="47.047839" lon="10.562457"><ele>2056.8</ele></trkpt>
      <trkpt lat="47.047937" lon="10.562480"><ele>2057.4</ele></trkpt>
      <trkpt lat="47.048043" lon="10.562461"><ele>2058.0</ele></trkpt>
      <trkpt lat="47.048111" lon="10.562405"><ele>2058.6</ele></trkpt>
      <trkpt lat="47.048188" lon="10.562293"><ele>2059.7</ele></trkpt>
      <trkpt lat="47.048207" lon="10.562233"><ele>2060.3</ele></trkpt>
      <trkpt lat="47.048291" lon="10.562236"><ele>2061.1</ele></trkpt>
      <trkpt lat="47.048368" lon="10.562125"><ele>2062.2</ele></trkpt>
      <trkpt lat="47.048432" lon="10.561782"><ele>2066.1</ele></trkpt>
      <trkpt lat="47.048472" lon="10.561775"><ele>2079.1</ele></trkpt>
      <trkpt lat="47.048318" lon="10.562154"><ele>2080.8</ele></trkpt>
      <trkpt lat="47.048328" lon="10.562191"><ele>2080.5</ele></trkpt>
      <trkpt lat="47.048389" lon="10.562233"><ele>2080.2</ele></trkpt>
      <trkpt lat="47.048459" lon="10.562278"><ele>2080.0</ele></trkpt>
      <trkpt lat="47.048513" lon="10.562293"><ele>2079.9</ele></trkpt>
      <trkpt lat="47.048549" lon="10.562278"><ele>2079.9</ele></trkpt>
      <trkpt lat="47.048563" lon="10.562251"><ele>2079.9</ele></trkpt>
      <trkpt lat="47.048610" lon="10.562270"><ele>2079.9</ele></trkpt>
      <trkpt lat="47.048646" lon="10.562316"><ele>2080.0</ele></trkpt>
      <trkpt lat="47.048698" lon="10.562316"><ele>2080.1</ele></trkpt>
      <trkpt lat="47.048770" lon="10.562353"><ele>2080.5</ele></trkpt>
      <trkpt lat="47.048869" lon="10.562328"><ele>2081.2</ele></trkpt>
      <trkpt lat="47.048893" lon="10.562302"><ele>2081.4</ele></trkpt>
      <trkpt lat="47.048917" lon="10.562299"><ele>2081.7</ele></trkpt>
      <trkpt lat="47.049007" lon="10.562384"><ele>2082.7</ele></trkpt>
      <trkpt lat="47.049091" lon="10.562370"><ele>2083.4</ele></trkpt>
      <trkpt lat="47.049138" lon="10.562380"><ele>2083.8</ele></trkpt>
      <trkpt lat="47.049166" lon="10.562312"><ele>2084.5</ele></trkpt>
      <trkpt lat="47.049223" lon="10.562321"><ele>2085.3</ele></trkpt>
      <trkpt lat="47.049299" lon="10.562359"><ele>2086.6</ele></trkpt>
      <trkpt lat="47.049352" lon="10.562342"><ele>2087.4</ele></trkpt>
      <trkpt lat="47.049427" lon="10.562345"><ele>2088.2</ele></trkpt>
      <trkpt lat="47.049499" lon="10.562407"><ele>2089.2</ele></trkpt>
      <trkpt lat="47.049544" lon="10.562420"><ele>2090.0</ele></trkpt>
      <trkpt lat="47.049651" lon="10.562525"><ele>2092.5</ele></trkpt>
      <trkpt lat="47.049711" lon="10.562638"><ele>2094.4</ele></trkpt>
      <trkpt lat="47.049756" lon="10.562653"><ele>2095.9</ele></trkpt>
      <trkpt lat="47.049801" lon="10.562617"><ele>2097.3</ele></trkpt>
      <trkpt lat="47.049833" lon="10.562501"><ele>2098.9</ele></trkpt>
      <trkpt lat="47.049761" lon="10.562126"><ele>2101.9</ele></trkpt>
      <trkpt lat="47.049808" lon="10.562002"><ele>2102.8</ele></trkpt>
      <trkpt lat="47.049706" lon="10.561813"><ele>2104.4</ele></trkpt>
      <trkpt lat="47.049662" lon="10.561618"><ele>2106.6</ele></trkpt>
      <trkpt lat="47.049662" lon="10.561429"><ele>2108.8</ele></trkpt>
      <trkpt lat="47.049642" lon="10.561366"><ele>2109.7</ele></trkpt>
      <trkpt lat="47.049660" lon="10.561286"><ele>2110.6</ele></trkpt>
      <trkpt lat="47.049617" lon="10.561035"><ele>2114.0</ele></trkpt>
      <trkpt lat="47.049582" lon="10.560969"><ele>2114.8</ele></trkpt>
      <trkpt lat="47.049596" lon="10.560888"><ele>2115.6</ele></trkpt>
      <trkpt lat="47.049558" lon="10.560831"><ele>2116.3</ele></trkpt>
      <trkpt lat="47.049540" lon="10.560732"><ele>2117.4</ele></trkpt>
      <trkpt lat="47.049502" lon="10.560681"><ele>2118.1</ele></trkpt>
      <trkpt lat="47.049493" lon="10.560610"><ele>2118.7</ele></trkpt>
      <trkpt lat="47.049404" lon="10.560431"><ele>2121.0</ele></trkpt>
      <trkpt lat="47.049371" lon="10.560193"><ele>2124.0</ele></trkpt>
      <trkpt lat="47.049311" lon="10.560014"><ele>2126.1</ele></trkpt>
      <trkpt lat="47.049306" lon="10.559901"><ele>2127.3</ele></trkpt>
      <trkpt lat="47.049221" lon="10.559566"><ele>2130.3</ele></trkpt>
      <trkpt lat="47.049241" lon="10.559392"><ele>2131.7</ele></trkpt>
      <trkpt lat="47.049278" lon="10.559336"><ele>2132.3</ele></trkpt>
      <trkpt lat="47.049308" lon="10.559321"><ele>2132.6</ele></trkpt>
      <trkpt lat="47.049312" lon="10.559278"><ele>2132.9</ele></trkpt>
      <trkpt lat="47.049252" lon="10.559095"><ele>2134.2</ele></trkpt>
      <trkpt lat="47.049290" lon="10.559087"><ele>2137.7</ele></trkpt>
      <trkpt lat="47.049324" lon="10.559193"><ele>2140.0</ele></trkpt>
      <trkpt lat="47.049346" lon="10.559204"><ele>2140.5</ele></trkpt>
      <trkpt lat="47.049422" lon="10.559168"><ele>2141.8</ele></trkpt>
      <trkpt lat="47.049503" lon="10.559176"><ele>2143.6</ele></trkpt>
      <trkpt lat="47.049631" lon="10.559289"><ele>2146.0</ele></trkpt>
      <trkpt lat="47.049683" lon="10.559301"><ele>2146.6</ele></trkpt>
      <trkpt lat="47.049710" lon="10.559292"><ele>2146.8</ele></trkpt>
      <trkpt lat="47.049852" lon="10.559377"><ele>2148.7</ele></trkpt>
      <trkpt lat="47.050040" lon="10.559616"><ele>2151.5</ele></trkpt>
      <trkpt lat="47.050171" lon="10.559728"><ele>2152.3</ele></trkpt>
      <trkpt lat="47.050296" lon="10.559745"><ele>2154.5</ele></trkpt>
      <trkpt lat="47.050315" lon="10.559783"><ele>2155.2</ele></trkpt>
      <trkpt lat="47.050537" lon="10.559934"><ele>2159.8</ele></trkpt>
      <trkpt lat="47.050666" lon="10.559997"><ele>2162.2</ele></trkpt>
      <trkpt lat="47.050684" lon="10.560022"><ele>2162.7</ele></trkpt>
      <trkpt lat="47.050692" lon="10.560076"><ele>2163.8</ele></trkpt>
      <trkpt lat="47.050794" lon="10.560186"><ele>2165.4</ele></trkpt>
      <trkpt lat="47.050953" lon="10.560309"><ele>2167.5</ele></trkpt>
      <trkpt lat="47.051025" lon="10.560412"><ele>2168.8</ele></trkpt>
      <trkpt lat="47.051116" lon="10.560447"><ele>2171.0</ele></trkpt>
      <trkpt lat="47.051162" lon="10.560499"><ele>2171.6</ele></trkpt>
      <trkpt lat="47.051187" lon="10.560615"><ele>2172.4</ele></trkpt>
      <trkpt lat="47.051244" lon="10.560699"><ele>2173.3</ele></trkpt>
      <trkpt lat="47.051362" lon="10.560821"><ele>2174.7</ele></trkpt>
      <trkpt lat="47.051576" lon="10.561169"><ele>2179.4</ele></trkpt>
      <trkpt lat="47.051678" lon="10.561284"><ele>2181.4</ele></trkpt>
      <trkpt lat="47.051860" lon="10.561548"><ele>2183.6</ele></trkpt>
      <trkpt lat="47.051899" lon="10.561545"><ele>2184.1</ele></trkpt>
      <trkpt lat="47.051923" lon="10.561564"><ele>2184.3</ele></trkpt>
      <trkpt lat="47.052024" lon="10.561766"><ele>2186.1</ele></trkpt>
      <trkpt lat="47.052127" lon="10.561897"><ele>2187.1</ele></trkpt>
      <trkpt lat="47.052217" lon="10.562046"><ele>2188.4</ele></trkpt>
      <trkpt lat="47.052260" lon="10.562066"><ele>2189.3</ele></trkpt>
      <trkpt lat="47.052349" lon="10.562196"><ele>2191.2</ele></trkpt>
      <trkpt lat="47.052461" lon="10.562251"><ele>2193.9</ele></trkpt>
      <trkpt lat="47.052586" lon="10.562480"><ele>2195.8</ele></trkpt>
      <trkpt lat="47.052693" lon="10.562562"><ele>2196.9</ele></trkpt>
      <trkpt lat="47.052800" lon="10.562777"><ele>2198.5</ele></trkpt>
      <trkpt lat="47.052840" lon="10.562900"><ele>2199.1</ele></trkpt>
      <trkpt lat="47.052912" lon="10.562945"><ele>2200.0</ele></trkpt>
      <trkpt lat="47.052932" lon="10.562979"><ele>2200.4</ele></trkpt>
      <trkpt lat="47.052934" lon="10.563046"><ele>2201.5</ele></trkpt>
      <trkpt lat="47.052961" lon="10.563117"><ele>2202.0</ele></trkpt>
      <trkpt lat="47.054472" lon="10.564202"><ele>2220.4</ele></trkpt>
      <trkpt lat="47.054520" lon="10.564209"><ele>2220.4</ele></trkpt>
      <trkpt lat="47.054580" lon="10.564308"><ele>2220.6</ele></trkpt>
      <trkpt lat="47.054608" lon="10.564459"><ele>2220.9</ele></trkpt>
      <trkpt lat="47.054582" lon="10.564504"><ele>2220.8</ele></trkpt>
      <trkpt lat="47.054599" lon="10.564917"><ele>2221.2</ele></trkpt>
      <trkpt lat="47.054682" lon="10.565089"><ele>2221.5</ele></trkpt>
      <trkpt lat="47.054841" lon="10.565520"><ele>2222.1</ele></trkpt>
      <trkpt lat="47.054909" lon="10.565606"><ele>2222.3</ele></trkpt>
      <trkpt lat="47.055029" lon="10.565698"><ele>2222.8</ele></trkpt>
      <trkpt lat="47.055135" lon="10.565749"><ele>2223.3</ele></trkpt>
      <trkpt lat="47.055217" lon="10.565764"><ele>2223.4</ele></trkpt>
      <trkpt lat="47.055276" lon="10.565821"><ele>2223.5</ele></trkpt>
      <trkpt lat="47.055324" lon="10.565948"><ele>2223.5</ele></trkpt>
      <trkpt lat="47.055323" lon="10.566033"><ele>2223.5</ele></trkpt>
      <trkpt lat="47.055296" lon="10.566146"><ele>2223.6</ele></trkpt>
      <trkpt lat="47.055306" lon="10.566305"><ele>2223.7</ele></trkpt>
      <trkpt lat="47.055341" lon="10.566497"><ele>2223.7</ele></trkpt>
      <trkpt lat="47.055371" lon="10.566559"><ele>2223.7</ele></trkpt>
      <trkpt lat="47.055602" lon="10.566894"><ele>2223.9</ele></trkpt>
      <trkpt lat="47.055711" lon="10.566948"><ele>2224.0</ele></trkpt>
      <trkpt lat="47.055728" lon="10.566978"><ele>2224.0</ele></trkpt>
      <trkpt lat="47.055805" lon="10.567031"><ele>2224.3</ele></trkpt>
      <trkpt lat="47.055893" lon="10.567167"><ele>2224.4</ele></trkpt>
      <trkpt lat="47.056030" lon="10.567437"><ele>2224.8</ele></trkpt>
      <trkpt lat="47.056182" lon="10.567602"><ele>2225.2</ele></trkpt>
      <trkpt lat="47.056311" lon="10.567813"><ele>2225.5</ele></trkpt>
      <trkpt lat="47.056347" lon="10.567916"><ele>2225.6</ele></trkpt>
      <trkpt lat="47.056438" lon="10.568013"><ele>2225.7</ele></trkpt>
      <trkpt lat="47.056703" lon="10.568175"><ele>2226.1</ele></trkpt>
      <trkpt lat="47.056735" lon="10.568290"><ele>2226.1</ele></trkpt>
      <trkpt lat="47.056813" lon="10.568331"><ele>2226.2</ele></trkpt>
      <trkpt lat="47.056913" lon="10.568431"><ele>2226.3</ele></trkpt>
      <trkpt lat="47.056935" lon="10.568513"><ele>2226.3</ele></trkpt>
      <trkpt lat="47.057050" lon="10.568675"><ele>2226.4</ele></trkpt>
      <trkpt lat="47.057219" lon="10.568743"><ele>2226.5</ele></trkpt>
      <trkpt lat="47.057279" lon="10.568816"><ele>2226.6</ele></trkpt>
      <trkpt lat="47.057310" lon="10.568819"><ele>2226.6</ele></trkpt>
      <trkpt lat="47.057389" lon="10.568769"><ele>2226.7</ele></trkpt>
      <trkpt lat="47.057489" lon="10.568763"><ele>2226.8</ele></trkpt>
      <trkpt lat="47.057530" lon="10.568738"><ele>2226.9</ele></trkpt>
      <trkpt lat="47.057670" lon="10.568844"><ele>2227.1</ele></trkpt>
      <trkpt lat="47.057708" lon="10.568956"><ele>2227.2</ele></trkpt>
      <trkpt lat="47.057755" lon="10.568978"><ele>2227.3</ele></trkpt>
      <trkpt lat="47.057817" lon="10.568984"><ele>2227.3</ele></trkpt>
      <trkpt lat="47.057889" lon="10.568962"><ele>2227.4</ele></trkpt>
      <trkpt lat="47.057957" lon="10.569023"><ele>2227.5</ele></trkpt>
      <trkpt lat="47.058026" lon="10.569010"><ele>2227.7</ele></trkpt>
      <trkpt lat="47.058064" lon="10.569065"><ele>2227.8</ele></trkpt>
      <trkpt lat="47.058091" lon="10.569079"><ele>2227.8</ele></trkpt>
      <trkpt lat="47.058153" lon="10.569077"><ele>2228.0</ele></trkpt>
      <trkpt lat="47.058181" lon="10.569093"><ele>2228.1</ele></trkpt>
      <trkpt lat="47.058218" lon="10.569145"><ele>2228.2</ele></trkpt>
      <trkpt lat="47.058274" lon="10.569172"><ele>2228.5</ele></trkpt>
      <trkpt lat="47.058293" lon="10.569209"><ele>2228.6</ele></trkpt>
      <trkpt lat="47.058406" lon="10.569307"><ele>2229.2</ele></trkpt>
      <trkpt lat="47.058486" lon="10.569430"><ele>2229.6</ele></trkpt>
      <trkpt lat="47.058606" lon="10.569511"><ele>2230.1</ele></trkpt>
      <trkpt lat="47.058649" lon="10.569557"><ele>2230.4</ele></trkpt>
      <trkpt lat="47.058707" lon="10.569688"><ele>2231.0</ele></trkpt>
      <trkpt lat="47.058735" lon="10.569881"><ele>2231.9</ele></trkpt>
      <trkpt lat="47.058730" lon="10.569965"><ele>2232.3</ele></trkpt>
      <trkpt lat="47.058758" lon="10.570034"><ele>2232.8</ele></trkpt>
      <trkpt lat="47.058787" lon="10.570049"><ele>2233.0</ele></trkpt>
      <trkpt lat="47.058817" lon="10.570113"><ele>2233.4</ele></trkpt>
      <trkpt lat="47.058842" lon="10.570119"><ele>2233.6</ele></trkpt>
      <trkpt lat="47.058888" lon="10.570164"><ele>2234.0</ele></trkpt>
      <trkpt lat="47.058968" lon="10.570162"><ele>2234.4</ele></trkpt>
      <trkpt lat="47.059004" lon="10.570216"><ele>2234.6</ele></trkpt>
      <trkpt lat="47.059013" lon="10.570259"><ele>2234.8</ele></trkpt>
      <trkpt lat="47.059196" lon="10.570381"><ele>2234.3</ele></trkpt>
      <trkpt lat="47.059130" lon="10.570422"><ele>2235.3</ele></trkpt>
      <trkpt lat="47.059121" lon="10.570453"><ele>2236.4</ele></trkpt>
      <trkpt lat="47.059161" lon="10.570481"><ele>2237.3</ele></trkpt>
      <trkpt lat="47.059221" lon="10.570585"><ele>2239.0</ele></trkpt>
      <trkpt lat="47.059239" lon="10.570661"><ele>2240.2</ele></trkpt>
      <trkpt lat="47.059245" lon="10.570830"><ele>2242.0</ele></trkpt>
      <trkpt lat="47.059278" lon="10.570934"><ele>2242.6</ele></trkpt>
      <trkpt lat="47.059265" lon="10.571019"><ele>2242.9</ele></trkpt>
      <trkpt lat="47.059277" lon="10.571052"><ele>2243.2</ele></trkpt>
      <trkpt lat="47.059350" lon="10.571132"><ele>2243.5</ele></trkpt>
      <trkpt lat="47.059454" lon="10.571435"><ele>2243.9</ele></trkpt>
      <trkpt lat="47.059543" lon="10.571576"><ele>2244.3</ele></trkpt>
      <trkpt lat="47.059565" lon="10.571651"><ele>2244.2</ele></trkpt>
      <trkpt lat="47.059652" lon="10.571701"><ele>2244.4</ele></trkpt>
      <trkpt lat="47.059675" lon="10.571698"><ele>2244.4</ele></trkpt>
      <trkpt lat="47.059623" lon="10.571744"><ele>2244.9</ele></trkpt>
      <trkpt lat="47.059714" lon="10.571861"><ele>2245.2</ele></trkpt>
      <trkpt lat="47.059685" lon="10.571711"><ele>2245.1</ele></trkpt>
      <trkpt lat="47.059771" lon="10.571878"><ele>2244.4</ele></trkpt>
      <trkpt lat="47.059846" lon="10.571984"><ele>2243.9</ele></trkpt>
      <trkpt lat="47.059878" lon="10.571994"><ele>2243.9</ele></trkpt>
      <trkpt lat="47.059929" lon="10.572096"><ele>2243.8</ele></trkpt>
      <trkpt lat="47.059984" lon="10.572169"><ele>2243.7</ele></trkpt>
      <trkpt lat="47.060096" lon="10.572266"><ele>2243.5</ele></trkpt>
      <trkpt lat="47.060119" lon="10.572369"><ele>2243.5</ele></trkpt>
      <trkpt lat="47.060183" lon="10.572395"><ele>2243.5</ele></trkpt>
      <trkpt lat="47.060235" lon="10.572509"><ele>2243.5</ele></trkpt>
      <trkpt lat="47.060263" lon="10.572665"><ele>2243.6</ele></trkpt>
      <trkpt lat="47.060234" lon="10.572692"><ele>2243.6</ele></trkpt>
      <trkpt lat="47.060252" lon="10.572809"><ele>2243.6</ele></trkpt>
      <trkpt lat="47.060306" lon="10.572956"><ele>2243.6</ele></trkpt>
      <trkpt lat="47.060274" lon="10.573067"><ele>2243.6</ele></trkpt>
      <trkpt lat="47.060303" lon="10.573255"><ele>2243.7</ele></trkpt>
      <trkpt lat="47.060337" lon="10.573316"><ele>2243.7</ele></trkpt>
      <trkpt lat="47.060382" lon="10.573353"><ele>2243.7</ele></trkpt>
      <trkpt lat="47.060429" lon="10.573325"><ele>2244.1</ele></trkpt>
      <trkpt lat="47.060444" lon="10.573298"><ele>2244.2</ele></trkpt>
      <trkpt lat="47.060502" lon="10.573306"><ele>2244.6</ele></trkpt>
      <trkpt lat="47.060526" lon="10.573328"><ele>2244.7</ele></trkpt>
      <trkpt lat="47.060559" lon="10.573420"><ele>2245.3</ele></trkpt>
      <trkpt lat="47.060536" lon="10.573502"><ele>2245.8</ele></trkpt>
      <trkpt lat="47.060568" lon="10.573522"><ele>2247.1</ele></trkpt>
      <trkpt lat="47.060649" lon="10.573502"><ele>2249.0</ele></trkpt>
      <trkpt lat="47.060692" lon="10.573592"><ele>2250.8</ele></trkpt>
      <trkpt lat="47.060714" lon="10.573695"><ele>2252.3</ele></trkpt>
      <trkpt lat="47.060821" lon="10.573764"><ele>2253.9</ele></trkpt>
      <trkpt lat="47.060868" lon="10.573814"><ele>2254.5</ele></trkpt>
      <trkpt lat="47.060878" lon="10.573872"><ele>2255.2</ele></trkpt>
      <trkpt lat="47.060961" lon="10.574040"><ele>2257.2</ele></trkpt>
      <trkpt lat="47.060967" lon="10.574110"><ele>2257.9</ele></trkpt>
      <trkpt lat="47.061022" lon="10.574204"><ele>2259.0</ele></trkpt>
      <trkpt lat="47.061020" lon="10.574348"><ele>2261.1</ele></trkpt>
      <trkpt lat="47.061056" lon="10.574428"><ele>2261.7</ele></trkpt>
      <trkpt lat="47.061128" lon="10.574508"><ele>2262.6</ele></trkpt>
      <trkpt lat="47.061100" lon="10.574577"><ele>2263.2</ele></trkpt>
      <trkpt lat="47.061107" lon="10.574665"><ele>2263.9</ele></trkpt>
      <trkpt lat="47.061190" lon="10.574715"><ele>2264.8</ele></trkpt>
      <trkpt lat="47.061202" lon="10.574822"><ele>2265.7</ele></trkpt>
      <trkpt lat="47.061259" lon="10.574939"><ele>2267.1</ele></trkpt>
      <trkpt lat="47.061275" lon="10.575024"><ele>2268.4</ele></trkpt>
      <trkpt lat="47.061329" lon="10.575018"><ele>2269.5</ele></trkpt>
      <trkpt lat="47.061354" lon="10.575029"><ele>2270.0</ele></trkpt>
      <trkpt lat="47.061369" lon="10.575086"><ele>2271.1</ele></trkpt>
      <trkpt lat="47.061361" lon="10.575122"><ele>2271.5</ele></trkpt>
      <trkpt lat="47.061319" lon="10.575181"><ele>2272.3</ele></trkpt>
      <trkpt lat="47.061445" lon="10.575193"><ele>2274.7</ele></trkpt>
      <trkpt lat="47.061475" lon="10.575278"><ele>2275.8</ele></trkpt>
      <trkpt lat="47.061460" lon="10.575371"><ele>2278.1</ele></trkpt>
      <trkpt lat="47.061472" lon="10.575410"><ele>2278.7</ele></trkpt>
      <trkpt lat="47.061453" lon="10.575444"><ele>2279.3</ele></trkpt>
      <trkpt lat="47.061488" lon="10.575461"><ele>2281.1</ele></trkpt>
      <trkpt lat="47.061523" lon="10.575456"><ele>2281.9</ele></trkpt>
      <trkpt lat="47.061573" lon="10.575425"><ele>2283.8</ele></trkpt>
      <trkpt lat="47.061588" lon="10.575205"><ele>2287.7</ele></trkpt>
      <trkpt lat="47.061554" lon="10.575010"><ele>2289.4</ele></trkpt>
      <trkpt lat="47.061609" lon="10.575103"><ele>2291.1</ele></trkpt>
      <trkpt lat="47.061681" lon="10.575161"><ele>2291.6</ele></trkpt>
      <trkpt lat="47.061663" lon="10.575269"><ele>2292.6</ele></trkpt>
      <trkpt lat="47.061712" lon="10.575343"><ele>2293.1</ele></trkpt>
      <trkpt lat="47.061788" lon="10.575390"><ele>2293.6</ele></trkpt>
      <trkpt lat="47.061785" lon="10.575431"><ele>2293.8</ele></trkpt>
      <trkpt lat="47.061751" lon="10.575500"><ele>2294.2</ele></trkpt>
      <trkpt lat="47.061694" lon="10.575547"><ele>2294.5</ele></trkpt>
      <trkpt lat="47.061705" lon="10.575621"><ele>2294.8</ele></trkpt>
      <trkpt lat="47.061734" lon="10.575637"><ele>2294.9</ele></trkpt>
      <trkpt lat="47.061793" lon="10.575736"><ele>2295.4</ele></trkpt>
      <trkpt lat="47.061826" lon="10.575753"><ele>2295.5</ele></trkpt>
      <trkpt lat="47.061874" lon="10.575813"><ele>2296.1</ele></trkpt>
      <trkpt lat="47.061853" lon="10.575872"><ele>2296.5</ele></trkpt>
      <trkpt lat="47.061988" lon="10.575955"><ele>2298.0</ele></trkpt>
      <trkpt lat="47.062006" lon="10.575980"><ele>2298.3</ele></trkpt>
      <trkpt lat="47.061980" lon="10.576121"><ele>2300.0</ele></trkpt>
      <trkpt lat="47.062015" lon="10.576194"><ele>2300.7</ele></trkpt>
      <trkpt lat="47.061977" lon="10.576237"><ele>2301.4</ele></trkpt>
      <trkpt lat="47.061974" lon="10.576280"><ele>2301.8</ele></trkpt>
      <trkpt lat="47.061994" lon="10.576352"><ele>2302.5</ele></trkpt>
      <trkpt lat="47.062063" lon="10.576458"><ele>2304.0</ele></trkpt>
      <trkpt lat="47.062058" lon="10.576533"><ele>2304.7</ele></trkpt>
      <trkpt lat="47.062074" lon="10.576570"><ele>2305.0</ele></trkpt>
      <trkpt lat="47.062132" lon="10.576611"><ele>2305.7</ele></trkpt>
      <trkpt lat="47.062184" lon="10.576711"><ele>2306.7</ele></trkpt>
      <trkpt lat="47.062207" lon="10.576726"><ele>2307.1</ele></trkpt>
      <trkpt lat="47.062346" lon="10.576770"><ele>2308.3</ele></trkpt>
      <trkpt lat="47.062246" lon="10.576335"><ele>2311.0</ele></trkpt>
      <trkpt lat="47.062246" lon="10.576291"><ele>2312.0</ele></trkpt>
      <trkpt lat="47.062266" lon="10.576263"><ele>2312.9</ele></trkpt>
      <trkpt lat="47.062258" lon="10.576175"><ele>2314.7</ele></trkpt>
      <trkpt lat="47.062229" lon="10.576223"><ele>2318.2</ele></trkpt>
      <trkpt lat="47.062235" lon="10.576260"><ele>2318.5</ele></trkpt>
      <trkpt lat="47.062276" lon="10.576319"><ele>2319.0</ele></trkpt>
      <trkpt lat="47.062309" lon="10.576486"><ele>2319.7</ele></trkpt>
      <trkpt lat="47.062415" lon="10.576536"><ele>2320.3</ele></trkpt>
      <trkpt lat="47.062522" lon="10.576705"><ele>2321.0</ele></trkpt>
      <trkpt lat="47.062710" lon="10.576772"><ele>2322.0</ele></trkpt>
      <trkpt lat="47.062813" lon="10.576792"><ele>2322.8</ele></trkpt>
      <trkpt lat="47.062762" lon="10.576657"><ele>2325.3</ele></trkpt>
      <trkpt lat="47.062734" lon="10.576651"><ele>2325.8</ele></trkpt>
      <trkpt lat="47.062765" lon="10.576614"><ele>2327.2</ele></trkpt>
      <trkpt lat="47.062835" lon="10.576586"><ele>2328.2</ele></trkpt>
      <trkpt lat="47.062916" lon="10.576485"><ele>2329.2</ele></trkpt>
      <trkpt lat="47.062946" lon="10.576465"><ele>2329.4</ele></trkpt>
      <trkpt lat="47.062940" lon="10.576050"><ele>2350.0</ele></trkpt>
      <trkpt lat="47.062940" lon="10.575840"><ele>2357.0</ele></trkpt>
      <trkpt lat="47.063020" lon="10.575960"><ele>2355.0</ele></trkpt>
      <trkpt lat="47.063030" lon="10.575680"><ele>2365.0</ele></trkpt>
      <trkpt lat="47.063100" lon="10.575680"><ele>2368.0</ele></trkpt>
      <trkpt lat="47.063180" lon="10.575700"><ele>2371.0</ele></trkpt>
      <trkpt lat="47.063340" lon="10.575750"><ele>2375.0</ele></trkpt>
      <trkpt lat="47.063530" lon="10.575690"><ele>2381.0</ele></trkpt>
      <trkpt lat="47.063590" lon="10.575640"><ele>2385.0</ele></trkpt>
      <trkpt lat="47.063500" lon="10.575600"><ele>2385.0</ele></trkpt>
      <trkpt lat="47.063340" lon="10.575470"><ele>2386.0</ele></trkpt>
      <trkpt lat="47.063290" lon="10.575220"><ele>2394.0</ele></trkpt>
      <trkpt lat="47.063310" lon="10.575170"><ele>2397.0</ele></trkpt>
      <trkpt lat="47.063390" lon="10.575240"><ele>2398.0</ele></trkpt>
      <trkpt lat="47.063470" lon="10.575180"><ele>2403.0</ele></trkpt>
      <trkpt lat="47.063560" lon="10.575190"><ele>2404.0</ele></trkpt>
      <trkpt lat="47.063550" lon="10.575060"><ele>2410.0</ele></trkpt>
      <trkpt lat="47.063480" lon="10.574970"><ele>2411.0</ele></trkpt>
      <trkpt lat="47.063550" lon="10.574880"><ele>2416.0</ele></trkpt>
      <trkpt lat="47.063710" lon="10.574870"><ele>2422.0</ele></trkpt>
      <trkpt lat="47.063680" lon="10.574780"><ele>2424.0</ele></trkpt>
      <trkpt lat="47.063670" lon="10.574700"><ele>2427.0</ele></trkpt>
      <trkpt lat="47.063690" lon="10.574510"><ele>2434.0</ele></trkpt>
      <trkpt lat="47.063650" lon="10.574120"><ele>2444.0</ele></trkpt>
      <trkpt lat="47.063700" lon="10.573610"><ele>2461.0</ele></trkpt>
      <trkpt lat="47.063750" lon="10.573590"><ele>2465.0</ele></trkpt>
      <trkpt lat="47.063890" lon="10.573910"><ele>2464.0</ele></trkpt>
      <trkpt lat="47.063960" lon="10.573950"><ele>2466.0</ele></trkpt>
      <trkpt lat="47.064030" lon="10.574000"><ele>2469.0</ele></trkpt>
      <trkpt lat="47.064090" lon="10.573860"><ele>2475.0</ele></trkpt>
      <trkpt lat="47.064070" lon="10.573760"><ele>2478.0</ele></trkpt>
      <trkpt lat="47.064100" lon="10.573680"><ele>2482.0</ele></trkpt>
      <trkpt lat="47.064150" lon="10.573560"><ele>2486.0</ele></trkpt>
      <trkpt lat="47.064160" lon="10.573450"><ele>2490.0</ele></trkpt>
      <trkpt lat="47.064170" lon="10.573340"><ele>2493.0</ele></trkpt>
      <trkpt lat="47.064260" lon="10.573390"><ele>2495.0</ele></trkpt>
      <trkpt lat="47.064310" lon="10.573140"><ele>2504.0</ele></trkpt>
      <trkpt lat="47.064390" lon="10.572940"><ele>2514.0</ele></trkpt>
      <trkpt lat="47.064400" lon="10.572850"><ele>2517.0</ele></trkpt>
      <trkpt lat="47.064470" lon="10.572810"><ele>2522.0</ele></trkpt>
      <trkpt lat="47.064480" lon="10.572430"><ele>2532.0</ele></trkpt>
      <trkpt lat="47.064530" lon="10.572190"><ele>2540.0</ele></trkpt>
      <trkpt lat="47.064570" lon="10.572230"><ele>2542.0</ele></trkpt>
      <trkpt lat="47.064610" lon="10.572350"><ele>2542.0</ele></trkpt>
      <trkpt lat="47.064720" lon="10.572550"><ele>2543.0</ele></trkpt>
      <trkpt lat="47.064790" lon="10.572570"><ele>2545.0</ele></trkpt>
      <trkpt lat="47.064790" lon="10.572430"><ele>2549.0</ele></trkpt>
      <trkpt lat="47.064840" lon="10.572480"><ele>2548.0</ele></trkpt>
      <trkpt lat="47.064880" lon="10.572500"><ele>2548.0</ele></trkpt>
      <trkpt lat="47.064910" lon="10.572410"><ele>2552.0</ele></trkpt>
      <trkpt lat="47.064990" lon="10.572440"><ele>2552.0</ele></trkpt>
      <trkpt lat="47.065030" lon="10.572350"><ele>2556.0</ele></trkpt>
      <trkpt lat="47.065080" lon="10.572290"><ele>2558.0</ele></trkpt>
      <trkpt lat="47.065160" lon="10.572280"><ele>2560.0</ele></trkpt>
      <trkpt lat="47.065180" lon="10.572210"><ele>2561.0</ele></trkpt>
      <trkpt lat="47.065300" lon="10.572140"><ele>2563.0</ele></trkpt>
      <trkpt lat="47.065340" lon="10.572060"><ele>2564.0</ele></trkpt>
      <trkpt lat="47.065530" lon="10.572280"><ele>2562.0</ele></trkpt>
      <trkpt lat="47.065690" lon="10.572430"><ele>2554.0</ele></trkpt>
      <trkpt lat="47.065770" lon="10.572590"><ele>2550.0</ele></trkpt>
      <trkpt lat="47.065870" lon="10.572850"><ele>2544.0</ele></trkpt>
      <trkpt lat="47.066140" lon="10.573200"><ele>2534.0</ele></trkpt>
      <trkpt lat="47.066430" lon="10.573510"><ele>2522.0</ele></trkpt>
      <trkpt lat="47.066670" lon="10.573840"><ele>2515.0</ele></trkpt>
      <trkpt lat="47.066790" lon="10.573900"><ele>2514.0</ele></trkpt>
      <trkpt lat="47.066830" lon="10.574020"><ele>2513.0</ele></trkpt>
      <trkpt lat="47.066930" lon="10.574150"><ele>2510.0</ele></trkpt>
      <trkpt lat="47.067150" lon="10.574320"><ele>2507.0</ele></trkpt>
      <trkpt lat="47.067210" lon="10.574420"><ele>2506.0</ele></trkpt>
      <trkpt lat="47.067530" lon="10.574650"><ele>2505.0</ele></trkpt>
      <trkpt lat="47.067590" lon="10.574810"><ele>2506.0</ele></trkpt>
      <trkpt lat="47.067820" lon="10.575080"><ele>2503.0</ele></trkpt>
      <trkpt lat="47.067980" lon="10.575200"><ele>2498.0</ele></trkpt>
      <trkpt lat="47.068300" lon="10.575360"><ele>2494.0</ele></trkpt>
      <trkpt lat="47.068450" lon="10.575380"><ele>2494.0</ele></trkpt>
      <trkpt lat="47.068590" lon="10.575420"><ele>2495.0</ele></trkpt>
      <trkpt lat="47.068870" lon="10.575520"><ele>2497.0</ele></trkpt>
      <trkpt lat="47.069160" lon="10.575590"><ele>2500.0</ele></trkpt>
      <trkpt lat="47.069310" lon="10.575740"><ele>2505.0</ele></trkpt>
      <trkpt lat="47.069530" lon="10.575890"><ele>2506.0</ele></trkpt>
      <trkpt lat="47.069740" lon="10.576090"><ele>2509.0</ele></trkpt>
      <trkpt lat="47.069950" lon="10.576210"><ele>2514.0</ele></trkpt>
      <trkpt lat="47.070050" lon="10.576330"><ele>2518.0</ele></trkpt>
      <trkpt lat="47.070180" lon="10.576380"><ele>2522.0</ele></trkpt>
      <trkpt lat="47.070220" lon="10.576420"><ele>2524.0</ele></trkpt>
      <trkpt lat="47.070370" lon="10.576660"><ele>2523.0</ele></trkpt>
      <trkpt lat="47.070490" lon="10.577040"><ele>2520.0</ele></trkpt>
      <trkpt lat="47.070640" lon="10.577140"><ele>2522.0</ele></trkpt>
      <trkpt lat="47.070950" lon="10.577360"><ele>2525.0</ele></trkpt>
      <trkpt lat="47.071130" lon="10.577580"><ele>2524.0</ele></trkpt>
      <trkpt lat="47.071290" lon="10.577830"><ele>2521.0</ele></trkpt>
      <trkpt lat="47.071410" lon="10.577980"><ele>2521.0</ele></trkpt>
      <trkpt lat="47.071600" lon="10.578050"><ele>2526.0</ele></trkpt>
      <trkpt lat="47.071750" lon="10.578460"><ele>2519.0</ele></trkpt>
      <trkpt lat="47.071840" lon="10.578850"><ele>2511.0</ele></trkpt>
      <trkpt lat="47.072160" lon="10.579420"><ele>2509.0</ele></trkpt>
      <trkpt lat="47.072470" lon="10.580070"><ele>2506.0</ele></trkpt>
      <trkpt lat="47.072610" lon="10.580790"><ele>2494.0</ele></trkpt>
      <trkpt lat="47.072610" lon="10.580980"><ele>2490.0</ele></trkpt>
      <trkpt lat="47.072590" lon="10.581150"><ele>2485.0</ele></trkpt>
      <trkpt lat="47.072800" lon="10.581870"><ele>2476.0</ele></trkpt>
      <trkpt lat="47.072920" lon="10.582250"><ele>2471.0</ele></trkpt>
      <trkpt lat="47.073210" lon="10.582620"><ele>2470.0</ele></trkpt>
      <trkpt lat="47.073420" lon="10.582990"><ele>2468.0</ele></trkpt>
      <trkpt lat="47.073620" lon="10.583300"><ele>2467.0</ele></trkpt>
      <trkpt lat="47.073780" lon="10.583650"><ele>2463.0</ele></trkpt>
      <trkpt lat="47.073990" lon="10.584230"><ele>2457.0</ele></trkpt>
      <trkpt lat="47.074030" lon="10.584420"><ele>2455.0</ele></trkpt>
      <trkpt lat="47.074020" lon="10.584580"><ele>2452.0</ele></trkpt>
      <trkpt lat="47.074070" lon="10.584630"><ele>2453.0</ele></trkpt>
      <trkpt lat="47.074120" lon="10.585090"><ele>2446.0</ele></trkpt>
      <trkpt lat="47.074180" lon="10.585270"><ele>2445.0</ele></trkpt>
      <trkpt lat="47.074450" lon="10.585620"><ele>2446.0</ele></trkpt>
      <trkpt lat="47.074490" lon="10.586050"><ele>2439.0</ele></trkpt>
      <trkpt lat="47.074570" lon="10.586220"><ele>2437.0</ele></trkpt>
      <trkpt lat="47.074650" lon="10.586400"><ele>2436.0</ele></trkpt>
      <trkpt lat="47.074840" lon="10.586640"><ele>2435.0</ele></trkpt>
      <trkpt lat="47.075010" lon="10.586880"><ele>2435.0</ele></trkpt>
      <trkpt lat="47.075090" lon="10.587100"><ele>2433.0</ele></trkpt>
      <trkpt lat="47.075110" lon="10.587330"><ele>2431.0</ele></trkpt>
      <trkpt lat="47.075120" lon="10.587620"><ele>2429.0</ele></trkpt>
      <trkpt lat="47.075170" lon="10.587880"><ele>2427.0</ele></trkpt>
    </trkseg>
  </trk>
</gpx>
