<?xml version="1.0" encoding="UTF-8"?>
<gpx version="1.1" creator="alpine_inversion" xmlns="http://www.topografix.com/GPX/1/1">
  <metadata><name>Quellenweg – Serfaus-Fiss-Ladis</name><desc>Quellenweg, Serfaus-Fiss-Ladis. Track from the public Komoot smart tour e1092010319.</desc></metadata>
  <trk>
    <name>Quellenweg – Serfaus-Fiss-Ladis</name>
    <trkseg>
      <trkpt lat="47.074756" lon="10.588073"><ele>2407.2</ele></trkpt>
      <trkpt lat="47.074732" lon="10.588011"><ele>2407.2</ele></trkpt>
      <trkpt lat="47.074326" lon="10.587254"><ele>2405.9</ele></trkpt>
      <trkpt lat="47.074160" lon="10.586779"><ele>2404.8</ele></trkpt>
      <trkpt lat="47.073973" lon="10.586363"><ele>2403.7</ele></trkpt>
      <trkpt lat="47.073300" lon="10.585494"><ele>2399.3</ele></trkpt>
      <trkpt lat="47.073138" lon="10.585417"><ele>2398.0</ele></trkpt>
      <trkpt lat="47.073015" lon="10.585223"><ele>2396.4</ele></trkpt>
      <trkpt lat="47.072935" lon="10.584675"><ele>2392.6</ele></trkpt>
      <trkpt lat="47.072935" lon="10.584478"><ele>2391.2</ele></trkpt>
      <trkpt lat="47.072843" lon="10.584416"><ele>2390.2</ele></trkpt>
      <trkpt lat="47.072648" lon="10.584558"><ele>2387.7</ele></trkpt>
      <trkpt lat="47.072550" lon="10.584510"><ele>2386.6</ele></trkpt>
      <trkpt lat="47.072303" lon="10.583945"><ele>2381.3</ele></trkpt>
      <trkpt lat="47.072096" lon="10.583713"><ele>2378.3</ele></trkpt>
      <trkpt lat="47.071910" lon="10.583652"><ele>2375.8</ele></trkpt>
      <trkpt lat="47.071454" lon="10.583401"><ele>2369.7</ele></trkpt>
      <trkpt lat="47.071219" lon="10.583165"><ele>2366.1</ele></trkpt>
      <trkpt lat="47.071058" lon="10.582730"><ele>2362.4</ele></trkpt>
      <trkpt lat="47.070850" lon="10.582303"><ele>2359.3</ele></trkpt>
      <trkpt lat="47.070607" lon="10.581962"><ele>2357.4</ele></trkpt>
      <trkpt lat="47.070429" lon="10.581776"><ele>2356.5</ele></trkpt>
      <trkpt lat="47.070051" lon="10.580969"><ele>2355.3</ele></trkpt>
      <trkpt lat="47.069883" lon="10.580322"><ele>2354.1</ele></trkpt>
      <trkpt lat="47.069506" lon="10.579644"><ele>2352.0</ele></trkpt>
      <trkpt lat="47.068950" lon="10.579035"><ele>2350.8</ele></trkpt>
      <trkpt lat="47.068463" lon="10.578674"><ele>2348.7</ele></trkpt>
      <trkpt lat="47.067875" lon="10.578235"><ele>2345.6</ele></trkpt>
      <trkpt lat="47.067250" lon="10.577853"><ele>2343.5</ele></trkpt>
      <trkpt lat="47.066541" lon="10.577592"><ele>2343.0</ele></trkpt>
      <trkpt lat="47.066125" lon="10.577243"><ele>2341.2</ele></trkpt>
      <trkpt lat="47.065509" lon="10.576858"><ele>2338.7</ele></trkpt>
      <trkpt lat="47.065063" lon="10.576732"><ele>2337.1</ele></trkpt>
      <trkpt lat="47.064523" lon="10.576774"><ele>2334.7</ele></trkpt>
      <trkpt lat="47.064163" lon="10.576725"><ele>2332.4</ele></trkpt>
      <trkpt lat="47.063711" lon="10.576653"><ele>2329.0</ele></trkpt>
      <trkpt lat="47.063329" lon="10.576541"><ele>2325.8</ele></trkpt>
      <trkpt lat="47.062955" lon="10.576473"><ele>2322.5</ele></trkpt>
      <trkpt lat="47.062829" lon="10.576613"><ele>2320.9</ele></trkpt>
      <trkpt lat="47.062700" lon="10.576633"><ele>2319.7</ele></trkpt>
      <trkpt lat="47.062699" lon="10.576633"><ele>2319.6</ele></trkpt>
      <trkpt lat="47.062826" lon="10.576688"><ele>2318.4</ele></trkpt>
      <trkpt lat="47.062773" lon="10.576735"><ele>2317.8</ele></trkpt>
      <trkpt lat="47.062693" lon="10.576720"><ele>2317.1</ele></trkpt>
      <trkpt lat="47.062555" lon="10.576622"><ele>2315.6</ele></trkpt>
      <trkpt lat="47.062412" lon="10.576470"><ele>2313.5</ele></trkpt>
      <trkpt lat="47.062250" lon="10.576063"><ele>2309.7</ele></trkpt>
      <trkpt lat="47.062243" lon="10.576140"><ele>2309.0</ele></trkpt>
      <trkpt lat="47.062224" lon="10.576366"><ele>2307.1</ele></trkpt>
      <trkpt lat="47.062261" lon="10.576545"><ele>2305.4</ele></trkpt>
      <trkpt lat="47.062350" lon="10.576734"><ele>2303.6</ele></trkpt>
      <trkpt lat="47.062345" lon="10.576825"><ele>2302.7</ele></trkpt>
      <trkpt lat="47.062317" lon="10.576885"><ele>2302.0</ele></trkpt>
      <trkpt lat="47.062259" lon="10.576701"><ele>2300.2</ele></trkpt>
      <trkpt lat="47.062204" lon="10.576614"><ele>2299.4</ele></trkpt>
      <trkpt lat="47.062179" lon="10.576573"><ele>2299.0</ele></trkpt>
      <trkpt lat="47.062088" lon="10.576319"><ele>2296.5</ele></trkpt>
      <trkpt lat="47.062009" lon="10.575934"><ele>2292.9</ele></trkpt>
      <trkpt lat="47.061930" lon="10.575730"><ele>2290.9</ele></trkpt>
      <trkpt lat="47.061744" lon="10.575424"><ele>2287.0</ele></trkpt>
      <trkpt lat="47.061693" lon="10.575216"><ele>2285.2</ele></trkpt>
      <trkpt lat="47.061602" lon="10.575090"><ele>2283.2</ele></trkpt>
      <trkpt lat="47.061575" lon="10.574932"><ele>2281.7</ele></trkpt>
      <trkpt lat="47.061557" lon="10.575003"><ele>2281.0</ele></trkpt>
      <trkpt lat="47.061582" lon="10.575395"><ele>2276.6</ele></trkpt>
      <trkpt lat="47.061557" lon="10.575487"><ele>2275.6</ele></trkpt>
      <trkpt lat="47.061507" lon="10.575536"><ele>2274.6</ele></trkpt>
      <trkpt lat="47.061472" lon="10.575237"><ele>2271.0</ele></trkpt>
      <trkpt lat="47.061386" lon="10.575228"><ele>2269.7</ele></trkpt>
      <trkpt lat="47.061352" lon="10.574996"><ele>2267.0</ele></trkpt>
      <trkpt lat="47.061276" lon="10.575010"><ele>2265.7</ele></trkpt>
      <trkpt lat="47.061229" lon="10.574626"><ele>2261.5</ele></trkpt>
      <trkpt lat="47.061142" lon="10.574373"><ele>2258.8</ele></trkpt>
      <trkpt lat="47.061055" lon="10.574210"><ele>2256.8</ele></trkpt>
      <trkpt lat="47.060999" lon="10.574209"><ele>2256.0</ele></trkpt>
      <trkpt lat="47.060969" lon="10.574049"><ele>2254.5</ele></trkpt>
      <trkpt lat="47.060765" lon="10.573730"><ele>2250.6</ele></trkpt>
      <trkpt lat="47.060675" lon="10.573695"><ele>2249.5</ele></trkpt>
      <trkpt lat="47.060622" lon="10.573509"><ele>2247.8</ele></trkpt>
      <trkpt lat="47.060500" lon="10.573551"><ele>2246.3</ele></trkpt>
      <trkpt lat="47.060515" lon="10.573328"><ele>2244.7</ele></trkpt>
      <trkpt lat="47.060481" lon="10.573287"><ele>2244.2</ele></trkpt>
      <trkpt lat="47.060360" lon="10.573322"><ele>2242.9</ele></trkpt>
      <trkpt lat="47.060292" lon="10.573218"><ele>2241.9</ele></trkpt>
      <trkpt lat="47.060344" lon="10.572909"><ele>2239.9</ele></trkpt>
      <trkpt lat="47.060256" lon="10.572598"><ele>2237.9</ele></trkpt>
      <trkpt lat="47.059887" lon="10.572018"><ele>2234.5</ele></trkpt>
      <trkpt lat="47.059794" lon="10.571949"><ele>2234.0</ele></trkpt>
      <trkpt lat="47.059650" lon="10.571686"><ele>2233.1</ele></trkpt>
      <trkpt lat="47.059527" lon="10.571554"><ele>2232.6</ele></trkpt>
      <trkpt lat="47.059256" lon="10.570946"><ele>2230.8</ele></trkpt>
      <trkpt lat="47.058918" lon="10.570138"><ele>2228.2</ele></trkpt>
      <trkpt lat="47.058718" lon="10.569957"><ele>2227.2</ele></trkpt>
      <trkpt lat="47.058630" lon="10.569516"><ele>2225.8</ele></trkpt>
      <trkpt lat="47.058548" lon="10.569377"><ele>2225.3</ele></trkpt>
      <trkpt lat="47.058365" lon="10.569275"><ele>2224.5</ele></trkpt>
      <trkpt lat="47.058292" lon="10.569170"><ele>2224.3</ele></trkpt>
      <trkpt lat="47.057958" lon="10.568926"><ele>2223.1</ele></trkpt>
      <trkpt lat="47.057917" lon="10.568920"><ele>2223.0</ele></trkpt>
      <trkpt lat="47.057766" lon="10.568895"><ele>2222.5</ele></trkpt>
      <trkpt lat="47.057422" lon="10.568692"><ele>2221.3</ele></trkpt>
      <trkpt lat="47.057119" lon="10.568646"><ele>2220.4</ele></trkpt>
      <trkpt lat="47.056993" lon="10.568574"><ele>2220.0</ele></trkpt>
      <trkpt lat="47.056851" lon="10.568317"><ele>2219.3</ele></trkpt>
      <trkpt lat="47.056469" lon="10.568006"><ele>2218.5</ele></trkpt>
      <trkpt lat="47.056311" lon="10.567760"><ele>2218.3</ele></trkpt>
      <trkpt lat="47.055957" lon="10.567363"><ele>2218.8</ele></trkpt>
      <trkpt lat="47.055833" lon="10.567078"><ele>2218.5</ele></trkpt>
      <trkpt lat="47.055554" lon="10.566826"><ele>2218.1</ele></trkpt>
      <trkpt lat="47.055326" lon="10.566424"><ele>2217.5</ele></trkpt>
      <trkpt lat="47.055299" lon="10.565847"><ele>2217.1</ele></trkpt>
      <trkpt lat="47.055142" lon="10.565737"><ele>2217.3</ele></trkpt>
      <trkpt lat="47.054916" lon="10.565648"><ele>2216.6</ele></trkpt>
      <trkpt lat="47.054788" lon="10.565387"><ele>2216.2</ele></trkpt>
      <trkpt lat="47.054592" lon="10.564835"><ele>2215.0</ele></trkpt>
      <trkpt lat="47.054561" lon="10.564398"><ele>2213.8</ele></trkpt>
      <trkpt lat="47.054466" lon="10.564180"><ele>2212.8</ele></trkpt>
      <trkpt lat="47.054235" lon="10.564121"><ele>2211.4</ele></trkpt>
      <trkpt lat="47.053963" lon="10.564051"><ele>2209.5</ele></trkpt>
      <trkpt lat="47.053589" lon="10.563518"><ele>2206.4</ele></trkpt>
      <trkpt lat="47.053241" lon="10.563418"><ele>2203.6</ele></trkpt>
      <trkpt lat="47.052568" lon="10.562484"><ele>2194.9</ele></trkpt>
      <trkpt lat="47.052286" lon="10.562154"><ele>2191.4</ele></trkpt>
      <trkpt lat="47.051462" lon="10.561083"><ele>2178.8</ele></trkpt>
      <trkpt lat="47.051126" lon="10.560536"><ele>2172.3</ele></trkpt>
      <trkpt lat="47.050804" lon="10.560188"><ele>2167.0</ele></trkpt>
      <trkpt lat="47.049612" lon="10.559264"><ele>2146.2</ele></trkpt>
      <trkpt lat="47.049363" lon="10.559146"><ele>2141.8</ele></trkpt>
      <trkpt lat="47.049296" lon="10.559083"><ele>2140.3</ele></trkpt>
      <trkpt lat="47.049250" lon="10.559087"><ele>2139.5</ele></trkpt>
      <trkpt lat="47.049229" lon="10.559140"><ele>2138.8</ele></trkpt>
      <trkpt lat="47.049202" lon="10.559386"><ele>2135.9</ele></trkpt>
      <trkpt lat="47.049202" lon="10.559386"><ele>2135.9</ele></trkpt>
      <trkpt lat="47.049186" lon="10.559470"><ele>2134.6</ele></trkpt>
      <trkpt lat="47.049301" lon="10.560121"><ele>2126.2</ele></trkpt>
      <trkpt lat="47.049387" lon="10.560500"><ele>2120.9</ele></trkpt>
      <trkpt lat="47.049535" lon="10.560933"><ele>2114.7</ele></trkpt>
      <trkpt lat="47.049685" lon="10.561743"><ele>2103.8</ele></trkpt>
      <trkpt lat="47.049657" lon="10.562239"><ele>2097.5</ele></trkpt>
      <trkpt lat="47.049553" lon="10.562317"><ele>2095.2</ele></trkpt>
      <trkpt lat="47.048698" lon="10.562283"><ele>2079.9</ele></trkpt>
      <trkpt lat="47.048555" lon="10.562277"><ele>2077.6</ele></trkpt>
      <trkpt lat="47.048272" lon="10.562208"><ele>2073.0</ele></trkpt>
      <trkpt lat="47.048171" lon="10.562228"><ele>2071.5</ele></trkpt>
      <trkpt lat="47.048022" lon="10.562465"><ele>2068.3</ele></trkpt>
      <trkpt lat="47.047921" lon="10.562485"><ele>2066.9</ele></trkpt>
      <trkpt lat="47.047368" lon="10.562238"><ele>2059.2</ele></trkpt>
      <trkpt lat="47.046869" lon="10.561832"><ele>2052.0</ele></trkpt>
      <trkpt lat="47.046667" lon="10.561565"><ele>2048.7</ele></trkpt>
      <trkpt lat="47.046208" lon="10.561357"><ele>2043.2</ele></trkpt>
      <trkpt lat="47.046087" lon="10.561238"><ele>2041.6</ele></trkpt>
      <trkpt lat="47.045049" lon="10.560694"><ele>2030.7</ele></trkpt>
      <trkpt lat="47.044698" lon="10.560575"><ele>2027.4</ele></trkpt>
      <trkpt lat="47.043470" lon="10.560555"><ele>2016.5</ele></trkpt>
      <trkpt lat="47.042600" lon="10.560803"><ele>2008.4</ele></trkpt>
      <trkpt lat="47.042377" lon="10.560935"><ele>2005.9</ele></trkpt>
      <trkpt lat="47.042111" lon="10.561155"><ele>2002.9</ele></trkpt>
      <trkpt lat="47.041428" lon="10.562026"><ele>1992.4</ele></trkpt>
      <trkpt lat="47.041143" lon="10.562303"><ele>1988.2</ele></trkpt>
      <trkpt lat="47.040745" lon="10.562432"><ele>1984.3</ele></trkpt>
      <trkpt lat="47.040553" lon="10.562452"><ele>1982.6</ele></trkpt>
      <trkpt lat="47.040532" lon="10.562544"><ele>1981.9</ele></trkpt>
      <trkpt lat="47.040323" lon="10.562875"><ele>1979.7</ele></trkpt>
      <trkpt lat="47.040168" lon="10.563237"><ele>1977.7</ele></trkpt>
      <trkpt lat="47.040148" lon="10.563204"><ele>1977.5</ele></trkpt>
      <trkpt lat="47.040009" lon="10.562923"><ele>1976.2</ele></trkpt>
      <trkpt lat="47.039914" lon="10.562830"><ele>1975.5</ele></trkpt>
    </trkseg>
  </trk>
</gpx>
